#dP2020  6 25  0  0  0.00000000     288   u+U IGS14 FIT  GFZ                    
## 2111 345600.00000000   300.00000000 59025 0.0000000000000                    
+  123   C01C02C03C04C05C06C07C08C09C10C11C12C13C14C16C19C20                    
+        C21C22C23C24C25C26C27C28C29C30C32C33C34C35C36C37C38                    
+        C39C40C41C42C43C44C45C46C60E01E02E03E04E05E07E08E09                    
+        E11E12E13E14E15E18E19E21E24E25E26E27E30E31E33E36G01                    
+        G02G03G04G05G06G07G08G09G10G11G12G13G14G15G16G17G18                    
+        G19G20G21G22G24G25G26G27G28G29G30G31G32J01J02J03J07                    
+        R01R02R03R04R05R07R08R09R11R12R13R14R15R16R17R18R19                    
+        R20R21R23R24 00 00 00 00 00 00 00 00 00 00 00 00 00                    
++        10 10  0 10 10 10 10 10 10 10  6  8 10  8 10 10  9                    
++         8  8 10  8  6  9  7  7  7  7  8  7  6  8  8  8 10                    
++        10 10 10 10  8 10 10 10 10  8  5  7  8  6  5  7  6                    
++         5  6  6  6  6  5  6  8  6  6  6  5  5  7  7  5  6                    
++         7  5  5  5  5  6  5  5  6  7  6  6  6  6  6  5  9                    
++         5  9  7  6  5  5  6  6  5  8  5  6  5 10 10 10 10                    
++        10  6  7  6  7  8  8  6  5  6 10  8  6 10  9  7 10                    
++         7  6  6  8  0  0  0  0  0  0  0  0  0  0  0  0  0                    
%c M  cc GPS ccc cccc cccc cccc cccc ccccc ccccc ccccc ccccc                    
%c cc cc ccc ccc cccc cccc cccc cccc ccccc ccccc ccccc ccccc                    
%f  1.2500000  1.025000000  0.00000000000  0.000000000000000                    
%f  0.0000000  0.000000000  0.00000000000  0.000000000000000                    
%i    0    0    0    0      0      0      0      0         0                    
%i    0    0    0    0      0      0      0      0         0                    
/* PCV:IGS14_2108 OL/AL:FES2004  NONE     YN CLK:CoN ORB:CoN                    
/*     GeoForschungsZentrum Potsdam                                             
/*                                                                              
/*                                                                              
*  2020  6 25 20 40  0.00000000                                                 
PC08 -13923.743854  17796.200544 -35558.308767   -334.292227                    
PC21  -6972.643197  25505.466684  -8943.518423   -574.968651                    
*  2020  6 25 20 45  0.00000000                                                 
PC08 -14375.843128  17758.775826 -35401.657465   -334.299442                    
PC21  -6999.975398  25183.127131  -9792.404803   -574.983567                    
*  2020  6 25 20 50  0.00000000                                                 
PC08 -14829.133087  17741.144239 -35228.028857   -334.306859                    
PC21  -7033.830470  24832.630813 -10625.135625   -574.998522                    
*  2020  6 25 20 55  0.00000000                                                 
PC08 -15282.748442  17743.341465 -35037.511164   -334.314179                    
PC21  -7075.384091  24454.695622 -11440.335405   -575.013444                    
*  2020  6 25 21  0  0.00000000                                                 
PC08 -15735.823306  17765.365297 -34830.200667   -334.321259                    
PC21  -7125.769684  24050.122211 -12236.657325   -575.028367                    
*  2020  6 25 21  5  0.00000000                                                 
PC08 -16187.492849  17807.175655 -34606.201650   -334.328520                    
PC21  -7186.073519  23619.791117 -13012.785466   -575.043266                    
*  2020  6 25 21 10  0.00000000                                                 
PC08 -16636.894956  17868.694675 -34365.626343   -334.335573                    
PC21  -7257.330021  23164.659583 -13767.436990   -575.058129                    
*  2020  6 25 21 15  0.00000000                                                 
PC08 -17083.171873  17949.806873 -34108.594855   -334.342806                    
PC21  -7340.517264  22685.758082 -14499.364268   -575.073033                    
*  2020  6 25 21 20  0.00000000                                                 
PC08 -17525.471849  18050.359378 -33835.235109   -334.350040                    
PC21  -7436.552705  22184.186565 -15207.356952   -575.087923                    
*  2020  6 25 21 25  0.00000000                                                 
PC08 -17962.950763  18170.162239 -33545.682772   -334.357182                    
PC21  -7546.289149  21661.110450 -15890.243989   -575.102819                    
*  2020  6 25 21 30  0.00000000                                                 
PC08 -18394.773732  18308.988796 -33240.081178   -334.364205                    
PC21  -7670.510975  21117.756350 -16546.895565   -575.117725                    
*  2020  6 25 21 35  0.00000000                                                 
PC08 -18820.116709  18466.576134 -32918.581255   -334.371598                    
PC21  -7809.930630  20555.407585 -17176.224988   -575.132672                    
*  2020  6 25 21 40  0.00000000                                                 
PC08 -19238.168048  18642.625591 -32581.341437   -334.378789                    
PC21  -7965.185412  19975.399463 -17777.190500   -575.147617                    
*  2020  6 25 21 45  0.00000000                                                 
PC08 -19648.130058  18836.803346 -32228.527589   -334.385985                    
PC21  -8136.834546  19379.114374 -18348.797012   -575.162542                    
*  2020  6 25 21 50  0.00000000                                                 
PC08 -20049.220516  19048.741066 -31860.312908   -334.393157                    
PC21  -8325.356580  18767.976709 -18890.097767   -575.177464                    
*  2020  6 25 21 55  0.00000000                                                 
PC08 -20440.674159  19278.036623 -31476.877841   -334.400560                    
PC21  -8531.147088  18143.447610 -19400.195921   -575.192427                    
*  2020  6 25 22  0  0.00000000                                                 
PC08 -20821.744138  19524.254873 -31078.409987   -334.407659                    
PC21  -8754.516716  17507.019590 -19878.246044   -575.207332                    
*  2020  6 25 22  5  0.00000000                                                 
PC08 -21191.703440  19786.928498 -30665.103999   -334.414804                    
PC21  -8995.689554  16860.211041 -20323.455536   -575.222307                    
*  2020  6 25 22 10  0.00000000                                                 
PC08 -21549.846265  20065.558911 -30237.161482   -334.421999                    
PC21  -9254.801866  16204.560635 -20735.085956   -575.237210                    
*  2020  6 25 22 15  0.00000000                                                 
PC08 -21895.489368  20359.617215 -29794.790894   -334.429110                    
PC21  -9531.901151  15541.621659 -21112.454261   -575.252172                    
*  2020  6 25 22 20  0.00000000                                                 
PC08 -22227.973357  20668.545225 -29338.207434   -334.436242                    
PC21  -9826.945579  14872.956300 -21454.933956   -575.267054                    
*  2020  6 25 22 25  0.00000000                                                 
PC08 -22546.663939  20991.756540 -28867.632939   -334.443436                    
PC21 -10139.803765  14200.129895 -21761.956153   -575.281966                    
*  2020  6 25 22 30  0.00000000                                                 
PC08 -22850.953122  21328.637674 -28383.295762   -334.450648                    
PC21 -10470.254912  13524.705179 -22033.010522   -575.296872                    
*  2020  6 25 22 35  0.00000000                                                 
PC08 -23140.260367  21678.549231 -27885.430666   -334.457728                    
PC21 -10817.989302  12848.236545 -22267.646166   -575.311783                    
*  2020  6 25 22 40  0.00000000                                                 
PC08 -23414.033686  22040.827135 -27374.278701   -334.465025                    
PC21 -11182.609153  12172.264348 -22465.472379   -575.326714                    
*  2020  6 25 22 45  0.00000000                                                 
PC08 -23671.750680  22414.783904 -26850.087086   -334.472315                    
PC21 -11563.629818  11498.309259 -22626.159313   -575.341609                    
*  2020  6 25 22 50  0.00000000                                                 
PC08 -23912.919532  22799.709965 -26313.109081   -334.479493                    
PC21 -11960.481337  10827.866712 -22749.438545   -575.356546                    
*  2020  6 25 22 55  0.00000000                                                 
PC08 -24137.079928  23194.875014 -25763.603870   -334.486739                    
PC21 -12372.510330  10162.401448 -22835.103536   -575.371458                    
*  2020  6 25 23  0  0.00000000                                                 
PC08 -24343.803925  23599.529412 -25201.836422   -334.493850                    
PC21 -12798.982224   9503.342184 -22883.009997   -575.386346                    
*  2020  6 25 23  5  0.00000000                                                 
PC08 -24532.696758  24012.905623 -24628.077370   -334.501161                    
PC21 -13239.083811   8852.076437 -22893.076138   -575.401262                    
*  2020  6 25 23 10  0.00000000                                                 
PC08 -24703.397577  24434.219673 -24042.602874   -334.508309                    
PC21 -13691.926112   8209.945498 -22865.282825   -575.416184                    
EOF                                     
